[{"OBJECT_NAME":"STARLINK-35248","OBJECT_ID":"2025-207G","EPOCH":"2026-03-09T18:08:31.960608","MEAN_MOTION":15.05641646,"ECCENTRICITY":0.00013051,"INCLINATION":97.6017,"RA_OF_ASC_NODE":138.7639,"ARG_OF_PERICENTER":89.837,"MEAN_ANOMALY":270.3006,"EPHEMERIS_TYPE":0,"CLASSIFICATION_TYPE":"U","NORAD_CAT_ID":65598,"ELEMENT_SET_NO":999,"REV_AT_EPOCH":2827,"BSTAR":0.00054177071,"MEAN_MOTION_DOT":7.763e-5,"MEAN_MOTION_DDOT":0},{"OBJECT_NAME":"RAPIDEYE 4","OBJECT_ID":"2008-040E","EPOCH":"2026-03-09T22:51:05.848992","MEAN_MOTION":15.03765217,"ECCENTRICITY":0.00096509,"INCLINATION":97.4015,"RA_OF_ASC_NODE":97.7474,"ARG_OF_PERICENTER":35.5595,"MEAN_ANOMALY":324.6273,"EPHEMERIS_TYPE":0,"CLASSIFICATION_TYPE":"U","NORAD_CAT_ID":33316,"ELEMENT_SET_NO":999,"REV_AT_EPOCH":95086,"BSTAR":0.00022327721,"MEAN_MOTION_DOT":3.01e-5,"MEAN_MOTION_DDOT":0}]
